[{"OBJECT_NAME":"STARLINK-34755","OBJECT_ID":"2025-158J","EPOCH":"2026-03-09T14:46:16.628736","MEAN_MOTION":15.01256845,"ECCENTRICITY":0.0001828,"INCLINATION":97.6011,"RA_OF_ASC_NODE":294.6464,"ARG_OF_PERICENTER":46.7056,"MEAN_ANOMALY":313.4321,"EPHEMERIS_TYPE":0,"CLASSIFICATION_TYPE":"U","NORAD_CAT_ID":64940,"ELEMENT_SET_NO":999,"REV_AT_EPOCH":3538,"BSTAR":3.0929e-5,"MEAN_MOTION_DOT":3.39e-6,"MEAN_MOTION_DDOT":0},{"OBJECT_NAME":"PEGASUS DEB","OBJECT_ID":"1994-029ACF","EPOCH":"2026-03-09T05:20:07.680768","MEAN_MOTION":14.35928851,"ECCENTRICITY":0.02972475,"INCLINATION":82.0143,"RA_OF_ASC_NODE":138.1597,"ARG_OF_PERICENTER":90.0358,"MEAN_ANOMALY":326.3453,"EPHEMERIS_TYPE":0,"CLASSIFICATION_TYPE":"U","NORAD_CAT_ID":24973,"ELEMENT_SET_NO":999,"REV_AT_EPOCH":53449,"BSTAR":0.00058141957,"MEAN_MOTION_DOT":2.825e-5,"MEAN_MOTION_DDOT":0}]
